{
  "type": "FeatureCollection",
  "features": [
    {
      "type": "Feature",
      "properties": {
        "norad_id": 59626,
        "name": "LEGION 2",
        "group": "resource",
        "lat": -70.57373559787817,
        "lon": -136.41072601389962,
        "alt_km": 520.0989122617902,
        "timestamp": "2025-12-16T21:38:56.827656+00:00",
        "meta_object_name": "LEGION 2",
        "meta_object_id": "2024-081B",
        "meta_epoch": "2025-12-16T06:17:19.326336",
        "meta_mean_motion": 15.16529259,
        "meta_eccentricity": 0.00056235,
        "meta_inclination": 97.5218,
        "meta_ra_of_asc_node": 64.9579,
        "meta_arg_of_pericenter": 278.6226,
        "meta_mean_anomaly": 81.437,
        "meta_ephemeris_type": 0,
        "meta_classification_type": "U",
        "meta_norad_cat_id": 59626,
        "meta_element_set_no": 999,
        "meta_rev_at_epoch": 8981,
        "meta_bstar": 0.00018416434,
        "meta_mean_motion_dot": 3.524e-05,
        "meta_mean_motion_ddot": 0,
        "tle_line1": "1 59626U 24081B   25350.26202924  .00003524  00000+0  18416-3 0  9991",
        "tle_line2": "2 59626  97.5218  64.9579 0005623 278.6226  81.4370 15.16529259 89815"
      },
      "geometry": {
        "type": "Point",
        "coordinates": [
          -136.41072601389962,
          -70.57373559787817
        ]
      }
    },
    {
      "type": "Feature",
      "properties": {
        "norad_id": 60182,
        "name": "ALOS-4 (DAICHI-4)",
        "group": "resource",
        "lat": 73.05180521535993,
        "lon": 58.49862851492605,
        "alt_km": 623.0654938636371,
        "timestamp": "2025-12-16T21:38:56.827666+00:00",
        "meta_object_name": "ALOS-4 (DAICHI-4)",
        "meta_object_id": "2024-123A",
        "meta_epoch": "2025-12-16T08:19:33.890592",
        "meta_mean_motion": 14.79475317,
        "meta_eccentricity": 0.00013958,
        "meta_inclination": 97.9225,
        "meta_ra_of_asc_node": 85.1427,
        "meta_arg_of_pericenter": 99.6272,
        "meta_mean_anomaly": 260.5097,
        "meta_ephemeris_type": 0,
        "meta_classification_type": "U",
        "meta_norad_cat_id": 60182,
        "meta_element_set_no": 999,
        "meta_rev_at_epoch": 7884,
        "meta_bstar": 0.00026776971,
        "meta_mean_motion_dot": 1.949e-05,
        "meta_mean_motion_ddot": 0,
        "tle_line1": "1 60182U 24123A   25350.34692003  .00001949  00000+0  26777-3 0  9995",
        "tle_line2": "2 60182  97.9225  85.1427 0001395  99.6272 260.5097 14.79475317 78847"
      },
      "geometry": {
        "type": "Point",
        "coordinates": [
          58.49862851492605,
          73.05180521535993
        ]
      }
    },
    {
      "type": "Feature",
      "properties": {
        "norad_id": 60452,
        "name": "LEGION 3",
        "group": "resource",
        "lat": -22.259286397213447,
        "lon": -96.36031615613798,
        "alt_km": 523.8466546062427,
        "timestamp": "2025-12-16T21:38:56.827677+00:00",
        "meta_object_name": "LEGION 3",
        "meta_object_id": "2024-146A",
        "meta_epoch": "2025-12-16T05:58:30.302976",
        "meta_mean_motion": 15.15801065,
        "meta_eccentricity": 0.0015289,
        "meta_inclination": 45.0022,
        "meta_ra_of_asc_node": 291.3194,
        "meta_arg_of_pericenter": 217.6692,
        "meta_mean_anomaly": 142.3117,
        "meta_ephemeris_type": 0,
        "meta_classification_type": "U",
        "meta_norad_cat_id": 60452,
        "meta_element_set_no": 999,
        "meta_rev_at_epoch": 7426,
        "meta_bstar": 0.00023231837,
        "meta_mean_motion_dot": 4.26e-05,
        "meta_mean_motion_ddot": 0,
        "tle_line1": "1 60452U 24146A   25350.24896184  .00004260  00000+0  23232-3 0  9997",
        "tle_line2": "2 60452  45.0022 291.3194 0015289 217.6692 142.3117 15.15801065 74269"
      },
      "geometry": {
        "type": "Point",
        "coordinates": [
          -96.36031615613798,
          -22.259286397213447
        ]
      }
    },
    {
      "type": "Feature",
      "properties": {
        "norad_id": 60453,
        "name": "LEGION 4",
        "group": "resource",
        "lat": -23.86368189907965,
        "lon": -6.655512029534235,
        "alt_km": 514.5984828880037,
        "timestamp": "2025-12-16T21:38:56.827687+00:00",
        "meta_object_name": "LEGION 4",
        "meta_object_id": "2024-146B",
        "meta_epoch": "2025-12-16T07:34:03.583200",
        "meta_mean_motion": 15.1586461,
        "meta_eccentricity": 0.00091426,
        "meta_inclination": 45.04,
        "meta_ra_of_asc_node": 22.7258,
        "meta_arg_of_pericenter": 329.4651,
        "meta_mean_anomaly": 30.5695,
        "meta_ephemeris_type": 0,
        "meta_classification_type": "U",
        "meta_norad_cat_id": 60453,
        "meta_element_set_no": 999,
        "meta_rev_at_epoch": 7312,
        "meta_bstar": 0.00021902874,
        "meta_mean_motion_dot": 4.002e-05,
        "meta_mean_motion_ddot": 0,
        "tle_line1": "1 60453U 24146B   25350.31531925  .00004002  00000+0  21903-3 0  9992",
        "tle_line2": "2 60453  45.0400  22.7258 0009142 329.4651  30.5695 15.15864610 73123"
      },
      "geometry": {
        "type": "Point",
        "coordinates": [
          -6.655512029534235,
          -23.86368189907965
        ]
      }
    },
    {
      "type": "Feature",
      "properties": {
        "norad_id": 60989,
        "name": "SENTINEL-2C",
        "group": "resource",
        "lat": -11.110194123794752,
        "lon": -118.37200023491431,
        "alt_km": 793.3500001590382,
        "timestamp": "2025-12-16T21:38:56.827698+00:00",
        "meta_object_name": "SENTINEL-2C",
        "meta_object_id": "2024-157A",
        "meta_epoch": "2025-12-16T03:58:32.164320",
        "meta_mean_motion": 14.30818888,
        "meta_eccentricity": 0.00012252,
        "meta_inclination": 98.5681,
        "meta_ra_of_asc_node": 62.5989,
        "meta_arg_of_pericenter": 97.1163,
        "meta_mean_anomaly": 263.016,
        "meta_ephemeris_type": 0,
        "meta_classification_type": "U",
        "meta_norad_cat_id": 60989,
        "meta_element_set_no": 999,
        "meta_rev_at_epoch": 6681,
        "meta_bstar": 6.5505174e-05,
        "meta_mean_motion_dot": 1.28e-06,
        "meta_mean_motion_ddot": 0,
        "tle_line1": "1 60989U 24157A   25350.16565005  .00000128  00000+0  65505-4 0  9999",
        "tle_line2": "2 60989  98.5681  62.5989 0001225  97.1163 263.0160 14.30818888 66815"
      },
      "geometry": {
        "type": "Point",
        "coordinates": [
          -118.37200023491431,
          -11.110194123794752
        ]
      }
    },
    {
      "type": "Feature",
      "properties": {
        "norad_id": 61735,
        "name": "IONOSFERA-M 1",
        "group": "resource",
        "lat": -23.55589549966458,
        "lon": -135.43631556740397,
        "alt_km": 821.1627464842122,
        "timestamp": "2025-12-16T21:38:56.827708+00:00",
        "meta_object_name": "IONOSFERA-M 1",
        "meta_object_id": "2024-199A",
        "meta_epoch": "2025-12-16T08:15:28.822176",
        "meta_mean_motion": 14.22714802,
        "meta_eccentricity": 7.931e-05,
        "meta_inclination": 98.7402,
        "meta_ra_of_asc_node": 220.1646,
        "meta_arg_of_pericenter": 17.0099,
        "meta_mean_anomaly": 343.1106,
        "meta_ephemeris_type": 0,
        "meta_classification_type": "U",
        "meta_norad_cat_id": 61735,
        "meta_element_set_no": 999,
        "meta_rev_at_epoch": 10170,
        "meta_bstar": 4.3695768e-05,
        "meta_mean_motion_dot": 5.4e-07,
        "meta_mean_motion_ddot": 0,
        "tle_line1": "1 61735U 24199A   25350.34408359  .00000054  00000+0  43696-4 0  9998",
        "tle_line2": "2 61735  98.7402 220.1646 0000793  17.0099 343.1106 14.22714802101708"
      },
      "geometry": {
        "type": "Point",
        "coordinates": [
          -135.43631556740397,
          -23.55589549966458
        ]
      }
    },
    {
      "type": "Feature",
      "properties": {
        "norad_id": 61736,
        "name": "IONOSFERA-M 2",
        "group": "resource",
        "lat": 20.65963266410978,
        "lon": 43.95587547009844,
        "alt_km": 815.3600465434392,
        "timestamp": "2025-12-16T21:38:56.827718+00:00",
        "meta_object_name": "IONOSFERA-M 2",
        "meta_object_id": "2024-199B",
        "meta_epoch": "2025-12-16T07:24:05.506848",
        "meta_mean_motion": 14.22716956,
        "meta_eccentricity": 0.00017254,
        "meta_inclination": 98.7401,
        "meta_ra_of_asc_node": 220.0417,
        "meta_arg_of_pericenter": 105.9097,
        "meta_mean_anomaly": 254.2271,
        "meta_ephemeris_type": 0,
        "meta_classification_type": "U",
        "meta_norad_cat_id": 61736,
        "meta_element_set_no": 999,
        "meta_rev_at_epoch": 10482,
        "meta_bstar": 4.1631067e-05,
        "meta_mean_motion_dot": 4.9e-07,
        "meta_mean_motion_ddot": 0,
        "tle_line1": "1 61736U 24199B   25350.30839707  .00000049  00000+0  41631-4 0  9991",
        "tle_line2": "2 61736  98.7401 220.0417 0001725 105.9097 254.2271 14.22716956104827"
      },
      "geometry": {
        "type": "Point",
        "coordinates": [
          43.95587547009844,
          20.65963266410978
        ]
      }
    }
  ]
}